[{"OBJECT_NAME":"PHISAT 2","OBJECT_ID":"2024-149C","EPOCH":"2026-03-09T18:55:12.732384","MEAN_MOTION":15.29548632,"ECCENTRICITY":0.00011753,"INCLINATION":97.3806,"RA_OF_ASC_NODE":148.6498,"ARG_OF_PERICENTER":168.623,"MEAN_ANOMALY":191.5037,"EPHEMERIS_TYPE":0,"CLASSIFICATION_TYPE":"U","NORAD_CAT_ID":60470,"ELEMENT_SET_NO":999,"REV_AT_EPOCH":8679,"BSTAR":0.00031420974,"MEAN_MOTION_DOT":8.925e-5,"MEAN_MOTION_DDOT":0},{"OBJECT_NAME":"STARLINK-34778","OBJECT_ID":"2025-161G","EPOCH":"2026-03-09T22:26:48.226560","MEAN_MOTION":15.30144053,"ECCENTRICITY":0.00013507,"INCLINATION":53.162,"RA_OF_ASC_NODE":293.3356,"ARG_OF_PERICENTER":65.8984,"MEAN_ANOMALY":294.2157,"EPHEMERIS_TYPE":0,"CLASSIFICATION_TYPE":"U","NORAD_CAT_ID":65021,"ELEMENT_SET_NO":999,"REV_AT_EPOCH":3535,"BSTAR":-0.00024137225,"MEAN_MOTION_DOT":-7.488e-5,"MEAN_MOTION_DDOT":0}]
